[
    {
        "Altitude(m)": 604983.0529993105,
        "Argument of Periapsis(deg)": 0.0,
        "Eccentricity": 0.0,
        "Inclination(deg)": 60.0,
        "Latitude(deg)": -0.09267306379854466,
        "Longitude(deg)": -154.91608377940938,
        "Mean Anomaly(deg)": 180.0,
        "RAAN(deg)": 125.00000000000001,
        "Satellite Name": "Test1 561",
        "Satellite Number": 561,
        "Semi-Major Axis(m)": 6980739.136638005,
        "Time(s)": 0
    },
    {
        "Altitude(m)": 605055.3326394014,
        "Argument of Periapsis(deg)": 0.00010418945913296404,
        "Eccentricity": 0.0,
        "Inclination(deg)": 60.0,
        "Latitude(deg)": -0.6330834660271301,
        "Longitude(deg)": -154.64795991881786,
        "Mean Anomaly(deg)": 180.62010614546182,
        "RAAN(deg)": 124.99957995086027,
        "Satellite Name": "Test1 561",
        "Satellite Number": 561,
        "Semi-Major Axis(m)": 6980739.136638005,
        "Time(s)": 10
    }
]